NORAD_CAT_ID,OBJECT_NAME,OBJECT_TYPE,EPOCH,MEAN_MOTION,ECCENTRICITY,INCLINATION,RA_OF_ASC_NODE,ARG_OF_PERICENTER,MEAN_ANOMALY,BSTAR,MEAN_MOTION_DOT,MEAN_MOTION_DDOT,TLE_LINE0,TLE_LINE1,TLE_LINE2,SEMIMAJOR_AXIS,PERIOD,APOGEE,PERIGEE,DECAYED
54002.0,STARLINK-5109,PAYLOAD,2023-02-25 22:27:05,15.08837857,0.0001179,53.2166,136.7572,83.9726,276.1401,0.00013115,1.8e-05,0.0,0 STARLINK-5109,1 54002U 22125AQ  23056.93547825  .00001800  00000-0  13115-3 0  9995,2 54002  53.2166 136.7572 0001179  83.9726 276.1401 15.08837857 22377,6917.887,95.438,540.568,538.936,0.0
54002.0,STARLINK-5109,PAYLOAD,2023-02-26 09:34:47,15.08860686,0.0001197,53.2159,134.6764,81.6787,278.4341,0.0013476,0.00021236,0.0,0 STARLINK-5109,1 54002U 22125AQ  23057.39915627  .00021236  00000-0  13476-2 0  9999,2 54002  53.2159 134.6764 0001197  81.6787 278.4341 15.08860686 22498,6917.817,95.436,540.51,538.854,0.0
54002.0,STARLINK-5109,PAYLOAD,2023-02-26 11:10:10,15.08865094,0.0001211,53.2159,134.3791,81.4417,278.6712,0.0014349,0.00022638,0.0,0 STARLINK-5109,1 54002U 22125AQ  23057.46539516  .00022638  00000-0  14349-2 0  9993,2 54002  53.2159 134.3791 0001211  81.4417 278.6712 15.08865094 22458,6917.804,95.436,540.506,538.831,0.0
54002.0,STARLINK-5109,PAYLOAD,2023-02-26 12:45:33,15.08870916,0.0001144,53.2162,134.0819,81.1368,278.9754,0.0015771,0.00024922,0.0,0 STARLINK-5109,1 54002U 22125AQ  23057.53163348  .00024922  00000-0  15771-2 0  9995,2 54002  53.2162 134.0819 0001144  81.1368 278.9754 15.08870916 22466,6917.786,95.436,540.442,538.859,0.0
54002.0,STARLINK-5109,PAYLOAD,2023-02-26 22:17:51,15.08853666,0.0001126,53.2171,132.2975,92.2035,267.9086,0.00067728,0.00010511,0.0,0 STARLINK-5109,1 54002U 22125AQ  23057.92907338  .00010511  00000-0  67728-3 0  9992,2 54002  53.2171 132.2975 0001126  92.2035 267.9086 15.08853666 22574,6917.839,95.437,540.483,538.925,0.0
54002.0,STARLINK-5109,PAYLOAD,2023-02-27 07:50:10,15.08851247,0.0001403,53.2157,130.5134,93.7584,266.3568,0.00053571,8.251e-05,0.0,0 STARLINK-5109,1 54002U 22125AQ  23058.32651521  .00008251  00000-0  53571-3 0  9996,2 54002  53.2157 130.5134 0001403  93.7584 266.3568 15.08851247 22637,6917.846,95.437,540.682,538.74,0.0
54002.0,STARLINK-5109,PAYLOAD,2023-02-27 14:11:42,15.08899736,0.0001363,53.2152,129.3231,96.6349,263.4798,0.003015,0.00048102,0.0,0 STARLINK-5109,1 54002U 22125AQ  23058.59146989  .00048102  00000-0  30150-2 0  9998,2 54002  53.2152 129.3231 0001363  96.6349 263.4798 15.08899736 22674,6917.698,95.434,540.506,538.62,0.0
54002.0,STARLINK-5109,PAYLOAD,2023-02-28 10:51:43,15.08861748,0.0001285,53.2167,125.4576,93.436,266.6779,0.0014218,0.00022426,0.0,0 STARLINK-5109,1 54002U 22125AQ  23059.45259250  .00022426  00000-0  14218-2 0  9998,2 54002  53.2167 125.4576 0001285  93.4360 266.6779 15.08861748 22801,6917.814,95.436,540.568,538.79,0.0
54002.0,STARLINK-5109,PAYLOAD,2023-03-01 04:20:59,15.08828128,0.0001573,53.2163,122.187,79.5174,280.5996,0.0013042,0.00020523,0.0,0 STARLINK-5109,1 54002U 22125AQ  23060.18124806  .00020523  00000-0  13042-2 0  9998,2 54002  53.2163 122.1870 0001573  79.5174 280.5996 15.08828128 22919,6917.917,95.438,540.87,538.693,0.0
54002.0,STARLINK-5109,PAYLOAD,2023-03-01 10:42:32,15.08805119,0.0001474,53.2166,120.9967,65.5404,294.5741,0.0019138,0.00030272,0.0,0 STARLINK-5109,1 54002U 22125AQ  23060.44621503  .00030272  00000-0  19138-2 0  9997,2 54002  53.2166 120.9967 0001474  65.5404 294.5741 15.08805119 22958,6917.987,95.44,540.872,538.832,0.0
54002.0,STARLINK-5109,PAYLOAD,2023-03-02 15:19:29,15.0886979,0.0001605,53.2175,115.6431,70.2672,289.8493,0.0015369,0.00024276,0.0,0 STARLINK-5109,1 54002U 22125AQ  23061.63853569  .00024276  00000-0  15369-2 0  9997,2 54002  53.2175 115.6431 0001605  70.2672 289.8493 15.08869790 23138,6917.789,95.436,540.765,538.544,0.0
54002.0,STARLINK-5109,PAYLOAD,2023-03-03 07:13:20,15.08888327,0.0001629,53.217,112.6713,72.5871,287.5299,0.0022056,0.00035036,0.0,0 STARLINK-5109,1 54002U 22125AQ  23062.30092626  .00035036  00000-0  22056-2 0  9998,2 54002  53.2170 112.6713 0001629  72.5871 287.5299 15.08888327 23232,6917.733,95.434,540.725,538.471,0.0
54002.0,STARLINK-5109,PAYLOAD,2023-03-03 10:24:06,15.08894333,0.0001609,53.2171,112.0768,70.4338,289.6828,0.0025173,0.00040063,0.0,0 STARLINK-5109,1 54002U 22125AQ  23062.43340278  .00040063  00000-0  25173-2 0  9990,2 54002  53.2171 112.0768 0001609  70.4338 289.6828 15.08894333 23202,6917.714,95.434,540.692,538.466,0.0
54002.0,STARLINK-5109,PAYLOAD,2023-03-03 19:56:24,15.08862792,0.0001673,53.2169,110.2921,75.9999,284.1179,0.0007663,0.00011936,0.0,0 STARLINK-5109,1 54002U 22125AQ  23062.83083853  .00011936  00000-0  76630-3 0  9999,2 54002  53.2169 110.2921 0001673  75.9999 284.1179 15.08862792 23263,6917.811,95.436,540.833,538.518,0.0
54002.0,STARLINK-5109,PAYLOAD,2023-03-04 03:53:20,15.08844264,0.0001294,53.2185,108.8071,90.6738,269.4402,-0.00013927,-2.504e-05,0.0,0 STARLINK-5109,1 54002U 22125AQ  23063.16203777 -.00002504  00000-0 -13927-3 0  9998,2 54002  53.2185 108.8071 0001294  90.6738 269.4402 15.08844264 23364,6917.867,95.437,540.628,538.837,0.0
54002.0,STARLINK-5109,PAYLOAD,2023-03-04 11:50:15,15.08859797,0.0001646,53.2185,107.321,92.1629,267.9552,0.0005819,8.99e-05,0.0,0 STARLINK-5109,1 54002U 22125AQ  23063.49323593  .00008990  00000-0  58190-3 0  9997,2 54002  53.2185 107.3210 0001646  92.1629 267.9552 15.08859797 23366,6917.82,95.436,540.824,538.546,0.0
54002.0,STARLINK-5109,PAYLOAD,2023-03-04 19:47:11,15.08843056,0.0001159,53.2169,105.8319,96.2498,263.8626,0.00039656,6.03e-05,0.0,0 STARLINK-5109,1 54002U 22125AQ  23063.82443850  .00006030  00000-0  39656-3 0  9992,2 54002  53.2169 105.8319 0001159  96.2498 263.8626 15.08843056 23413,6917.871,95.437,540.538,538.934,0.0
54002.0,STARLINK-5109,PAYLOAD,2023-03-05 11:41:03,15.088359,0.0001936,53.2162,102.8574,88.3469,271.7745,0.00040284,6.128e-05,0.0,0 STARLINK-5109,1 54002U 22125AQ  23064.48684704  .00006128  00000-0  40284-3 0  9997,2 54002  53.2162 102.8574 0001936  88.3469 271.7745 15.08835900 23564,6917.893,95.438,541.097,538.419,0.0
54002.0,STARLINK-5109,PAYLOAD,2023-03-05 19:37:59,15.08834412,0.0001806,53.217,101.3701,88.4405,271.6794,0.00045463,6.954e-05,0.0,0 STARLINK-5109,1 54002U 22125AQ  23064.81804937  .00006954  00000-0  45463-3 0  9997,2 54002  53.2170 101.3701 0001806  88.4405 271.6794 15.08834412 23566,6917.897,95.438,541.012,538.513,0.0
54002.0,STARLINK-5109,PAYLOAD,2023-03-06 19:28:46,15.08841614,0.0001121,53.2168,96.9107,102.1418,257.9699,0.00014577,2.033e-05,0.0,0 STARLINK-5109,1 54002U 22125AQ  23065.81164488  .00002033  00000-0  14577-3 0  9994,2 54002  53.2168  96.9107 0001121 102.1418 257.9699 15.08841614 23765,6917.875,95.437,540.516,538.965,0.0
54002.0,STARLINK-5109,PAYLOAD,2023-03-07 19:19:33,15.08832001,0.0001386,53.2172,92.4483,101.6995,258.4153,0.00034937,5.275e-05,0.0,0 STARLINK-5109,1 54002U 22125AQ  23066.80525305  .00005275  00000-0  34937-3 0  9996,2 54002  53.2172  92.4483 0001386 101.6995 258.4153 15.08832001 23913,6917.905,95.438,540.729,538.811,0.0
54002.0,STARLINK-5109,PAYLOAD,2023-03-08 08:02:39,15.08848975,0.0001208,53.2165,90.0709,93.7937,266.3193,0.0016729,0.00026443,0.0,0 STARLINK-5109,1 54002U 22125AQ  23067.33517391  .00026443  00000-0  16729-2 0  9999,2 54002  53.2165  90.0709 0001208  93.7937 266.3193 15.08848975 23997,6917.853,95.437,540.554,538.882,0.0
54002.0,STARLINK-5109,PAYLOAD,2023-03-09 11:04:11,15.08870584,0.0001634,53.2172,85.0161,124.3854,235.7293,0.0013213,0.00020821,0.0,0 STARLINK-5109,1 54002U 22125AQ  23068.46124554  .00020821  00000-0  13213-2 0  9998,2 54002  53.2172  85.0161 0001634 124.3854 235.7293 15.08870584 24165,6917.787,95.436,540.782,538.522,0.0
54002.0,STARLINK-5109,PAYLOAD,2023-03-10 01:22:40,15.08849543,8.71e-05,53.2168,82.3395,61.5968,298.5111,0.00031139,4.673e-05,0.0,0 STARLINK-5109,1 54002U 22125AQ  23069.05740742  .00004673  00000-0  31139-3 0  9992,2 54002  53.2168  82.3395 0000871  61.5968 298.5111 15.08849543 24256,6917.851,95.437,540.319,539.114,0.0
54002.0,STARLINK-5109,PAYLOAD,2023-03-10 17:16:31,15.08835208,0.0001902,53.2175,79.3634,93.1032,267.0177,-0.00015175,-2.702e-05,0.0,0 STARLINK-5109,1 54002U 22125AQ  23069.71980856 -.00002702  00000-0 -15175-3 0  9992,2 54002  53.2175  79.3634 0001902  93.1032 267.0177 15.08835208 24352,6917.895,95.438,541.076,538.444,0.0
54002.0,STARLINK-5109,PAYLOAD,2023-03-11 05:59:36,15.08831715,0.0001669,53.2181,76.9855,111.1927,248.9244,3.8306e-05,3.22e-06,0.0,0 STARLINK-5109,1 54002U 22125AQ  23070.24973103  .00000322  00000-0  38306-4 0  9995,2 54002  53.2181  76.9855 0001669 111.1927 248.9244 15.08831715 24386,6917.906,95.438,540.925,538.616,0.0
54002.0,STARLINK-5109,PAYLOAD,2023-03-12 01:04:14,15.08835644,0.0001434,53.2181,73.4189,111.8009,248.3136,0.00028939,4.32e-05,0.0,0 STARLINK-5109,1 54002U 22125AQ  23071.04461637  .00004320  00000-0  28939-3 0  9990,2 54002  53.2181  73.4189 0001434 111.8009 248.3136 15.08835644 24554,6917.894,95.438,540.751,538.767,0.0
54002.0,STARLINK-5109,PAYLOAD,2023-03-12 05:50:24,15.0883714,0.0001356,53.2176,72.5274,110.35,249.7637,0.00036821,5.577e-05,0.0,0 STARLINK-5109,1 54002U 22125AQ  23071.24333752  .00005577  00000-0  36821-3 0  9992,2 54002  53.2176  72.5274 0001356 110.3500 249.7637 15.08837140 24538,6917.889,95.438,540.692,538.816,0.0
54002.0,STARLINK-5109,PAYLOAD,2023-03-12 07:25:47,15.08839129,0.0001298,53.2176,72.2302,110.4608,249.6524,0.00044271,6.765e-05,0.0,0 STARLINK-5109,1 54002U 22125AQ  23071.30957752  .00006765  00000-0  44271-3 0  9999,2 54002  53.2176  72.2302 0001298 110.4608 249.6524 15.08839129 24546,6917.883,95.438,540.646,538.85,0.0
54002.0,STARLINK-5109,PAYLOAD,2023-03-13 00:55:02,15.0884002,0.0001402,53.2182,68.9602,112.2845,247.8296,0.00025423,3.76e-05,0.0,0 STARLINK-5109,1 54002U 22125AQ  23072.03821935  .00003760  00000-0  25423-3 0  9993,2 54002  53.2182  68.9602 0001402 112.2845 247.8296 15.08840020 24658,6917.88,95.438,540.715,538.775,0.0
